#dP2026  1  2  0  0  0.00000000     288   u+U IGS20 FIT  WHU
## 2399 432000.00000000   300.00000000 61042     0.000000000
+  113   G01G02G03G04G05G07G08G09G10G11G12G13G14G15G16G17G18
+        G19G20G21G22G23G24G25G26G27G28G29G30G31G32R02R03R04
+        R05R07R08R12R14R15R16R17R18R21R22R24E02E03E04E05E07
+        E08E09E10E11E12E13E14E15E18E19E21E25E26E27E30E31E33
+        E34E36C01C02C03C04C05C06C07C08C09C10C11C12C13C14C16
+        C19C20C21C22C23C24C25C26C27C28C29C30C32C33C34C35C36
+        C37C38C39C40C41C42C43C44C45J02J03  0  0  0  0  0  0
+          0  0  0  0  0  0  0  0  0  0  0  0  0  0  0  0  0
+          0  0  0  0  0  0  0  0  0  0  0  0  0  0  0  0  0
+          0  0  0  0  0  0  0  0  0  0  0  0  0  0  0  0  0
++         3  3  3  3  3  3  3  3  2  3  3  5  3  4  3  3  3
++         4  3  3  3  3  3  3  3  3  3  3  3  3  4  3  3  3
++         3  3  4  3  3  3  3  3  3  3  4  3  3  3  3  3  3
++         3  3  3  3  3  2  2  3  3  3  2  3  3  2  2  2  3
++         3  3  4  4  4  5  4  3  3  4  3  3  4  3  4  5  4
++         4  4  3  4  3  3  4  3  4  4  5  4  3  3  3  4  3
++         3  4  4  3  3  3  4  3  2  3  3  0  0  0  0  0  0
++         0  0  0  0  0  0  0  0  0  0  0  0  0  0  0  0  0
++         0  0  0  0  0  0  0  0  0  0  0  0  0  0  0  0  0
++         0  0  0  0  0  0  0  0  0  0  0  0  0  0  0  0  0
%c M  cc GPS ccc cccc cccc cccc cccc ccccc ccccc ccccc ccccc
%c cc cc ccc ccc cccc cccc cccc cccc ccccc ccccc ccccc ccccc
%f  1.2500000  1.025000000  0.00000000000  0.000000000000000
%f  0.0000000  0.000000000  0.00000000000  0.000000000000000
%i    0    0    0    0      0      0      0      0         0
%i    0    0    0    0      0      0      0      0         0
/* GNSS RESEARCH CENTER, WUHAN UNIVERSITY (WHU), P. R. CHINA
/* POSITION AND NAVIGATION DATA ANALYST (PANDA) SOFTWARE    
/* JING GUO (EMAIL:JINGGUO@WHU.EDU.CN)                      
/* PCV:IGS20_2388 OL/AL:FES2014b NONE     YN ORB:CoN CLK:CoN
*  2026  1  2 20 25  0.00000000
PG01  14909.926401 -20082.760255   8843.005461    347.335596                    
PG02  15715.053137 -11057.568758  18516.027183      8.058018                    
PG03  19887.657180 -12371.967771 -12608.505322    608.672833                    
PG04  10317.902144 -10971.860170 -21844.351737     35.636462                    
PG05 -26003.991886   4390.997968  -3493.915157   -226.628417                    
PG07   4500.470808 -25575.327315   4983.173714   -129.862097                    
PG08  18384.761922  -1095.732859  19124.533357    508.489288                    
PG09   -127.799856 -18929.818768 -18694.482590    769.562131                    
PG10  11286.323244  11877.864712  21246.830855   -579.459827                    
PG11 -15167.400704  -2270.117866 -21623.450706   -488.027834                    
PG12 -22964.136824   9838.937066  -9280.799310   -606.086831                    
PG13 -18893.991221  -7938.141208  16768.358696    690.656097                    
PG14  -8347.754372 -13984.426282  21099.003840    726.204992                    
PG15 -17586.093224   3745.512878  19027.161613    372.982265                    
PG16  25968.597059   1567.250432  -6783.786298    179.917556                    
PG17 -12507.518580 -22520.718677   6249.957281    -20.424382                    
PG18  -4195.734479  25327.410020   6297.097988   -461.094938                    
PG19 -16958.631334 -20718.599660  -2002.048719    683.628634                    
PG20 -22265.772389  -1486.601953 -14234.725979    361.804796                    
PG21 -23532.429125  -3813.467962 -11726.269027    371.561266                    
PG22 -14026.576060 -11992.841600  19319.064163    -63.148218                    
PG23  -4130.190560  15403.524465  21258.465614    594.190550                    
PG24 -14361.251720  16220.062363  14585.273802   -178.252490                    
PG25 -11915.033938  16002.452697 -17793.824215    452.357591                    
PG26  19511.251589   7153.139981 -16991.987244   -304.999214                    
PG27  21259.788403   9464.620982  12847.531373    -11.203813                    
PG28   7507.703659  18313.879268 -17709.109299   -616.379644                    
PG29  -3638.084175  17534.281825 -19608.863921   -399.616357                    
PG30  -2696.818469 -23056.892557  12846.257563     75.101348                    
PG31  13639.817179   7649.256736 -21729.476524   -174.764653                    
PG32  15276.359082  21396.958557   4722.921795   -180.574416                    
PR02  -5924.843345   8876.293869  23215.393371     12.704099                    
PR03  12483.901480  15632.394521  15916.628219    136.108181                    
PR04  21877.483545  13134.631545    361.260991    329.986231                    
PR05  19984.332918   3731.565079 -15411.842855    161.440659                    
PR07 -12152.102359 -15554.697091 -16078.916682    116.879789                    
PR08 -22118.242866 -12660.549361    120.870723     -2.428282                    
PR12 -22634.239945   9314.715744   7181.629381     63.565737                    
PR14  -1431.877023  13238.661888 -21755.922746     30.923557                    
PR15  14769.737242   2824.880825 -20589.955488     60.554242                    
PR16  22602.231859  -9392.055569  -7113.034072     43.549805                    
PR17   2914.911012  24529.701518   6289.174224    258.326254                    
PR18   8654.193318  14207.772387  19375.764545    240.285755                    
PR21  -1277.056052 -25263.120537  -3391.824863   -268.809437                    
PR22  -9213.412626 -12843.688659 -19987.257244    103.753032                    
PR24  -5428.666792  21974.526939 -11723.856330   -140.849149                    
PE02  -8855.485838  16410.913457 -22996.175274      7.371577                    
PE03   -427.965109  22961.022386  18660.181955      8.677846                    
PE04 -14994.884454 -25455.886177  -1860.073117    -30.874259                    
PE05 -15387.208418   7041.770594  24285.960152      2.153406                    
PE07  21399.367076  13183.416459 -15626.257505    -36.514154                    
PE08  14772.456838  25553.614618   2137.092678    -66.421369                    
PE09 -21297.809463 -13312.362058  15671.863661   -157.419802                    
PE10 -11138.032111 -12600.498284 -24352.581972   -761.936093                    
PE11 -16957.801254  -1461.223073 -24219.226085   3411.895388                    
PE12  -4612.905595 -20440.416738 -20891.425074    -16.375842                    
PE13  16669.838660   2018.647210  24387.693032    -45.793447                    
PE14  17538.423387  -3257.584012  18033.103794   5799.042844                    
PE15   4009.377132  20936.495191  20556.954910   -225.604562                    
PE18 -24692.453018  -6484.768686 -17651.107622   2294.740430                    
PE19   1452.854239 -22295.038156 -19412.984013   2599.635792                    
PE21  26230.992525  -8628.064638  10661.405947   -712.367036                    
PE25 -26503.928227   8324.227493 -10208.709448     21.742208                    
PE26  19303.584717 -17812.784394  13658.452125    179.956654                    
PE27  28104.231747   4448.640122  -8190.452465   -869.169557                    
PE30  13953.194382  14595.706597 -21667.108769   -584.811023                    
PE31 -13350.863419 -14712.983884  21937.175280   -109.688454                    
PE33  10956.000298 -27137.828716  -4424.230931     -0.488532                    
PE34 -10731.197145  27185.894393   4681.054295   -227.312741                    
PE36 -19303.320889  17615.309514 -13903.120833   -503.467123                    
PC01 -34334.880808  24498.459158   1114.391922   -231.539646                    
PC02   4386.245204  41880.988683   2500.691491    787.224597                    
PC03 -14829.505553  39446.843340   1343.656800    926.959753                    
PC04 -39573.184898  14400.350959   1567.375947   -894.685434                    
PC05  21915.317250  36057.860877   1413.511630   -174.900900                    
PC06 -15359.964892  39184.175646  -4456.358356     62.842565                    
PC07  -4529.089873  31134.420586 -27809.411965    433.457407                    
PC08 -14441.799774  19936.432819  34184.134536   -666.594231                    
PC09 -10686.995366  38908.160397 -12859.936583    185.519307                    
PC10   4350.593439  34195.198269 -23482.946536   -382.130774                    
PC11   4305.482796 -25040.734589  11597.303038    811.015042                    
PC12  13923.239601  -9256.643179  22382.327364    158.470424                    
PC13  -5791.439577  21838.099658  35778.935002   -262.939350                    
PC14   4936.705060 -14626.678874 -23243.171545   -716.323013                    
PC16 -16305.064993  38959.191511  -3276.231183   -873.218392                    
PC19   5527.364978  17037.406945  21412.014031   -959.313973                    
PC20 -13151.090703  10781.557974  22139.145631   -942.386836                    
PC21  26125.105400   2945.979953  -9306.312822   -896.771385                    
PC22  22579.026538  14083.321044   8355.188807    427.028446                    
PC23 -12712.716118 -10562.027530  22477.308733   -516.753451                    
PC24  20434.604376 -18970.178893   1427.064952     29.620162                    
PC25   3989.578347 -21023.740988  17904.662305    961.027993                    
PC26  23108.739864  -7304.038997 -13893.464553   -575.826327                    
PC27 -16611.982008  -2123.314148 -22338.946251    576.898424                    
PC28 -14567.208166 -18162.475154 -15373.754863    466.711698                    
PC29   3000.534471  27383.297754  -4479.800047    544.825461                    
PC30  -9370.151675  18642.185002 -18552.653465    356.151468                    
PC32 -26203.796022  -2793.523080   9224.091468   -968.912556                    
PC33  -5604.558445 -17011.635479 -21404.033086   -959.805894                    
PC34   9369.200860 -18672.318364  18478.950359    854.559316                    
PC35  14774.632248  19015.341558  14115.253286   -217.720156                    
PC36  -4669.768550  20985.324322 -17773.149663    306.906170                    
PC37 -22946.608193   5637.667544  14818.366800   -903.366074                    
PC38 -22459.413691  21436.326284  28562.494293    266.578396                    
PC39 -18443.526413  37808.094763   4608.867144    -17.633809                    
PC40  -7147.954077  27226.227776 -31260.836149   -196.621395                    
PC41 -21924.070276 -14457.830181  -9424.385018   -947.713863                    
PC42  15293.307519  -9520.356396 -21261.965722   -922.943117                    
PC43  -3975.317157 -27420.972670   3214.256602    128.740941                    
PC44  16836.883920   1530.615747  22188.254294    910.394646                    
PC45  11957.884221  11136.185634 -22639.065585   -626.996788                    
PJ02 -31526.639637  14573.056145 -19196.825986     -0.665317                    
PJ03 -24154.373074  32900.110887  -5619.570999     -0.192983                    
EOF
